{"type":"FeatureCollection","features":[{"type":"Feature","properties":{"name":"Chinese claim","note":"(Admin. by India, Claimed by China)","type":""},"geometry":{"type":"MultiLineString","coordinates":[[[78.84865,31.29091],[78.86099,31.2802],[78.89764,31.23008],[78.92627,31.18962],[78.93475,31.14864],[78.94696,31.12013],[78.95232,31.10761],[79.0318,31.08978]],[[79.14579,31.10446],[79.23809,31.07469]],[[79.0318,31.08978],[79.14579,31.10446]],[[79.23809,31.07469],[79.38217,31.07832],[79.38259,31.07833]]]}},{"type":"Feature","properties":{"name":"Chinese claim","note":"(Admin. by India, Claimed by China)","type":""},"geometry":{"type":"MultiLineString","coordinates":[[[78.46902,32.22653],[78.38181,32.18246],[78.44165,32.12269]],[[78.47142,32.14093],[78.53353,32.0599],[78.60495,32.00937],[78.68184,31.95087],[78.71419,31.88302]],[[78.44165,32.12269],[78.47142,32.14093]]]}},{"type":"Feature","properties":{"name":"Indian claim","note":"(Admin. by China, Ceded to China by Pakistan, Claimed by India)","type":""},"geometry":{"type":"MultiLineString","coordinates":[[[75.98108,36.44544],[76.14928,36.42455],[76.23899,36.3199]],[[76.31858,36.33008],[76.38886,36.30977],[76.42865,36.23955],[76.46926,36.22001],[76.56828,36.1904]],[[76.23899,36.3199],[76.31858,36.33008]],[[76.66894,36.1904],[76.71876,36.15991],[76.75865,36.11005],[76.77891,36.03982],[76.77891,35.97967],[76.77891,35.91026],[76.83906,35.85952],[76.939,35.84004],[77.00856,35.81973],[77.06861,35.77994],[77.08959,35.7402],[77.12948,35.73007],[77.20896,35.70966]],[[76.56828,36.1904],[76.66894,36.1904]],[[77.34859,35.71978],[77.42135,35.64015]],[[77.20896,35.70966],[77.3089,35.71978],[77.34859,35.71978]],[[77.46889,35.65188],[77.50868,35.58015],[77.51881,35.48492],[77.51961,35.47744]],[[77.42135,35.64015],[77.46889,35.65188]]]}},{"type":"Feature","properties":{"name":"Indian claim","note":"(Admin. by China, Claimed by India)","type":""},"geometry":{"type":"LineString","coordinates":[[78.91769,33.38626],[78.91253,33.4023],[78.90757,33.42354],[78.90602,33.44799],[78.90984,33.49424],[78.90984,33.49426],[78.90405,33.5216],[78.88689,33.56689],[78.88524,33.59178],[78.89599,33.62009],[78.91738,33.6334],[78.94539,33.63412],[78.97619,33.62498],[79.00255,33.61934],[79.01278,33.63368],[79.01133,33.658],[78.99614,33.70546],[78.99521,33.72967],[78.99128,33.75192],[78.97619,33.76949],[78.94539,33.79982],[78.92875,33.83416],[78.91604,33.8707],[78.89754,33.90747],[78.88752,33.94646],[78.90281,33.98317],[78.93506,34.00715],[79.03934,34.00196],[79.06239,33.99529],[79.07066,33.9955],[79.08099,34.0001],[79.09391,34.01444],[79.10166,34.01999],[79.13225,34.02648],[79.37596,34.01141],[79.40552,34.0219],[79.44851,34.06751],[79.47642,34.08893],[79.49502,34.10593],[79.49781,34.12019],[79.48727,34.15673],[79.4882,34.18189],[79.49802,34.18642],[79.51394,34.18298],[79.53285,34.18417],[79.55156,34.20957],[79.54835,34.25065],[79.52469,34.35152],[79.50949,34.39217],[79.51032,34.41216],[79.52303,34.42609],[79.5436,34.42867],[79.62287,34.41198],[79.66959,34.40744],[79.71059,34.41493],[79.71268,34.41532],[79.73801,34.44472],[79.73677,34.46332],[79.7255,34.47562],[79.71144,34.48645],[79.70173,34.5003],[79.70214,34.52035],[79.71361,34.53484],[79.73149,34.54508],[79.75144,34.55195],[79.79444,34.55882],[79.81335,34.56538],[79.83071,34.58084],[79.83929,34.60006],[79.84456,34.62316],[79.85211,34.64445],[79.86678,34.65804],[79.9073,34.66186],[79.93773,34.65692],[79.99577,34.6475],[80.03525,34.65747],[80.04972,34.67313],[80.06636,34.73742],[80.08558,34.77659],[80.07387,34.79227],[80.07791,34.83733],[80.11656,34.88393],[80.16261,34.95088],[80.17384,35.07192],[80.18325,35.10318],[80.18796,35.15064],[80.20257,35.19085],[80.24183,35.22316],[80.26128,35.26989],[80.25549,35.31268],[80.27771,35.34523],[80.28405,35.39597],[80.28442,35.44552],[80.30943,35.46281],[80.32632,35.46678],[80.32712,35.47687],[80.31921,35.50925],[80.31553,35.53188],[80.31225,35.54896],[80.30597,35.57272],[80.2915,35.60742],[80.24357,35.63866],[80.1779,35.66695],[80.11107,35.68001],[80.08849,35.72469],[80.05824,35.74994],[80.03824,35.79976],[80.00452,35.83893],[79.96029,35.83886],[79.91855,35.82225],[79.87556,35.78496],[79.79644,35.79725],[79.73754,35.80201],[79.71636,35.81718],[79.62333,35.84565],[79.56758,35.85874],[79.54567,35.86463],[79.48865,35.87883],[79.46082,35.88577],[79.42826,35.90851],[79.42392,35.93982],[79.40025,35.96199],[79.36366,35.97517],[79.32366,35.98003],[79.29007,35.97729],[79.18362,35.94132],[79.19405,35.88692],[79.13253,35.83622],[79.02808,35.85237],[78.97143,35.88743],[78.82526,35.86521],[78.77675,35.86665],[78.73654,35.86806],[78.66479,35.85254],[78.65228,35.84091],[78.54531,35.78112],[78.50893,35.7679],[78.43524,35.76097],[78.40021,35.74542],[78.36672,35.72516],[78.32993,35.70924],[78.29262,35.70123],[78.27577,35.69472],[78.26099,35.68278],[78.24104,35.65679],[78.22936,35.64749],[78.18554,35.63597],[78.16187,35.62361],[78.14234,35.60579],[78.1288,35.583],[78.11485,35.54455],[78.10162,35.5383],[78.0733,35.54021],[77.98452,35.56326],[77.95476,35.56171],[77.94122,35.54672],[77.93202,35.52269],[77.91517,35.49417],[77.88985,35.48176],[77.86029,35.48409],[77.82949,35.49179],[77.80035,35.49541]]}},{"type":"Feature","properties":{"name":"Pakistani claim","note":"(Admin. by India, Claimed by Pakistan)","type":""},"geometry":{"type":"MultiLineString","coordinates":[[[76.54244,33.23286],[76.55856,33.23146],[76.61189,33.19392],[76.62595,33.18929]],[[75.94361,32.89812],[75.95467,32.90138],[75.97245,32.91104],[76.05141,32.96946],[76.07549,32.99328],[76.08169,33.0008],[76.10081,33.01305],[76.1528,33.0323],[76.19466,33.04328],[76.21595,33.05108],[76.23703,33.06349],[76.26173,33.08646],[76.27083,33.10354],[76.27424,33.11661],[76.27476,33.12679],[76.28106,33.13645],[76.29429,33.1479],[76.3533,33.18009],[76.39671,33.19772],[76.51216,33.21722],[76.54244,33.23286]],[[76.73984,33.19741],[76.75452,33.19456],[76.76868,33.18681],[76.82945,33.12555],[76.84836,33.1148],[76.90304,33.07377],[76.92753,33.04586],[76.94014,33.03429],[76.95606,33.02509],[76.99988,33.00724],[77.08845,32.95021],[77.13579,32.92675],[77.21992,32.902],[77.3487,32.86724],[77.37133,32.86704]],[[76.62595,33.18929],[76.73984,33.19741]],[[77.71229,33.01452],[77.72108,33.01264],[77.73255,33.00158],[77.74216,32.98695],[77.76521,32.96256],[77.82381,32.91034],[77.85791,32.87301],[77.89347,32.80296],[77.91052,32.79074],[77.92272,32.77518],[77.92892,32.76244],[77.93233,32.71087],[77.93853,32.69534],[77.94938,32.68271],[77.97388,32.66036],[77.98318,32.64806],[77.98835,32.63377],[77.99465,32.62036],[78.00891,32.61031]],[[77.37133,32.86704],[77.37774,32.87221],[77.38497,32.88404],[77.389,32.88768],[77.39396,32.88993],[77.44399,32.89448],[77.47768,32.90125],[77.49783,32.90926],[77.53897,32.91835],[77.55354,32.92342],[77.56687,32.92988],[77.58103,32.93905],[77.60749,32.96241],[77.61576,32.9683],[77.62485,32.97148],[77.64335,32.97605],[77.65204,32.98047],[77.65999,32.98649],[77.67343,32.99941],[77.67519,33.00041],[77.69441,33.00809],[77.7033,33.01326],[77.71229,33.01452]],[[75.84605,32.94223],[75.85855,32.94215],[75.86961,32.94001],[75.8938,32.93081],[75.9031,32.92892],[75.91168,32.9259],[75.91984,32.92026],[75.93596,32.90324],[75.94361,32.89812]],[[75.84739,32.51675],[75.85504,32.52628],[75.86713,32.54747],[75.86589,32.56057],[75.89555,32.59685],[75.91292,32.61054],[75.92046,32.61447],[75.92263,32.61734],[75.92573,32.63057],[75.92604,32.64119],[75.9247,32.65196],[75.90486,32.69131],[75.90144,32.70286],[75.90341,32.73637],[75.91323,32.75568],[75.9124,32.7619],[75.9093,32.7727],[75.90331,32.78162],[75.88667,32.79973],[75.88088,32.80885],[75.87654,32.81761],[75.86961,32.8274],[75.85855,32.83955],[75.82424,32.87045],[75.81173,32.8843],[75.80491,32.89861],[75.80336,32.912],[75.80688,32.92368],[75.81463,32.93179],[75.82641,32.93807],[75.84605,32.94223]],[[78.35328,32.76862],[78.36042,32.76761],[78.36662,32.76521],[78.37034,32.76113],[78.37344,32.75397],[78.38088,32.72929],[78.38336,32.71444],[78.38429,32.69937],[78.38057,32.66919],[78.37778,32.65734],[78.37468,32.64878],[78.36837,32.63982],[78.35856,32.63168],[78.33292,32.61791],[78.31339,32.60504],[78.30409,32.59615],[78.29944,32.58866],[78.29293,32.5754],[78.28652,32.54509],[78.28187,32.53238],[78.27401,32.51887],[78.2704,32.50417],[78.27401,32.49114],[78.28218,32.48065],[78.29365,32.47329],[78.30295,32.47065]],[[78.22792,32.69018],[78.24373,32.69294],[78.25386,32.6979],[78.26874,32.7157],[78.27939,32.72149],[78.30512,32.72948],[78.31432,32.73544],[78.31763,32.74361],[78.31546,32.76051],[78.31773,32.76467],[78.32517,32.76673],[78.33385,32.76785],[78.35328,32.76862]],[[78.20807,32.69217],[78.22792,32.69018]],[[78.00891,32.61031],[78.04323,32.61139],[78.05904,32.61835],[78.06989,32.63036],[78.07702,32.64046],[78.08405,32.64514],[78.09304,32.64899],[78.09883,32.65377],[78.1041,32.66186],[78.11464,32.66772],[78.1317,32.67149],[78.15454,32.67405],[78.17852,32.68875],[78.19154,32.69201],[78.20807,32.69217]],[[78.30295,32.47065],[78.31339,32.47174],[78.35887,32.51559],[78.38098,32.52804]]]}},{"type":"Feature","properties":{"name":"Pakistani claim","note":"(Admin. by India, Claimed by Pakistan)","type":""},"geometry":{"type":"MultiLineString","coordinates":[[[75.84739,32.51675],[75.83912,32.50657],[75.82858,32.49789],[75.81804,32.49479],[75.79768,32.48112],[75.743,32.46438],[75.7368,32.4559],[75.73257,32.43717],[75.72936,32.42962],[75.72316,32.42422],[75.70569,32.4128],[75.69825,32.40603],[75.68265,32.39981],[75.61195,32.39546],[75.5733,32.37464],[75.53795,32.34518],[75.5024,32.30059]],[[75.5024,32.30059],[75.4807,32.30746],[75.47418,32.31214],[75.46478,32.31774],[75.45145,32.32402],[75.44473,32.3303],[75.44204,32.33619],[75.44442,32.35319],[75.44194,32.35976],[75.43677,32.36022]],[[75.43677,32.36022],[75.42271,32.35399],[75.41414,32.34601],[75.39037,32.33549]],[[75.39037,32.33549],[75.32711,32.33996]],[[75.32711,32.33996],[75.2984,32.33243]]]}},{"type":"Feature","properties":{"name":"Indian claim","note":"(Admin. by Pakistan, Claimed by India)","type":""},"geometry":{"type":"MultiLineString","coordinates":[[[74.1247,35.0992],[74.09938,35.09274],[74.08843,35.08504],[74.08117,35.07835],[74.08109,35.07827],[74.07654,35.07202],[74.06755,35.05538],[74.066,35.0497],[74.06621,35.04551],[74.06755,35.04225],[74.06908,35.03992],[74.06962,35.0391],[74.07079,35.03803],[74.07272,35.03626],[74.07493,35.03495],[74.07603,35.0343],[74.08812,35.02965],[74.08815,35.02963],[74.09267,35.0267],[74.09773,35.02143],[74.10135,35.01394],[74.10041,35.01006],[74.10031,35.00965],[74.09754,35.00661],[74.09752,35.0066],[74.09192,35.00339],[74.08552,34.99973],[74.08533,34.99962],[74.07561,34.9911],[74.06693,34.98179],[74.06445,34.9743],[74.063,34.96546],[74.06404,34.95017],[74.06145,34.94169],[74.0568,34.93291],[74.05424,34.93084],[74.05256,34.9295],[74.04173,34.92286],[74.04151,34.92273],[74.03666,34.9173],[74.03431,34.91467],[74.03417,34.91451],[74.02993,34.90505],[74.02426,34.88813],[74.02425,34.8881],[74.02248,34.88605],[74.01796,34.8808],[74.01784,34.88066],[74.01571,34.87898],[74.01236,34.87633],[74.01215,34.87617],[74.01214,34.87616],[74.0005,34.87243],[73.98911,34.86878],[73.98386,34.86771],[73.97815,34.86656],[73.96223,34.86521],[73.95462,34.86276],[73.95438,34.86268],[73.94766,34.85808],[73.94742,34.85788],[73.9425,34.85379],[73.93728,34.84944],[73.93722,34.8494],[73.93009,34.83937],[73.93002,34.83931],[73.92872,34.8381],[73.92526,34.8349],[73.92379,34.83353],[73.91624,34.82857],[73.91102,34.82609],[73.90811,34.82471],[73.90808,34.8247],[73.88987,34.8129],[73.88958,34.81271],[73.88743,34.81193],[73.884,34.81069]],[[73.884,34.81069],[73.88384,34.81071],[73.8411,34.8141]],[[73.8411,34.8141],[73.8195,34.81049],[73.81568,34.80914],[73.81564,34.80912],[73.79744,34.79805],[73.79656,34.79752],[73.78912,34.7941],[73.78374,34.79245],[73.77723,34.79162]],[[73.77723,34.79162],[73.75842,34.7925]],[[73.75842,34.7925],[73.75057,34.78997],[73.75042,34.7899],[73.74023,34.78475],[73.71884,34.77132],[73.70871,34.76331],[73.70131,34.7557],[73.70127,34.75566],[73.69424,34.7446],[73.68556,34.72326],[73.6808,34.7153],[73.65083,34.6767],[73.64897,34.67246],[73.64794,34.66781],[73.64918,34.66305],[73.65125,34.65902],[73.65786,34.64946],[73.65972,34.64398],[73.66034,34.63897],[73.65951,34.63365],[73.63895,34.58549],[73.62923,34.56942],[73.62493,34.56538],[73.62344,34.56399],[73.62328,34.56399],[73.61848,34.56399]],[[73.61848,34.56399],[73.61844,34.56404],[73.61601,34.56677],[73.61383,34.56921],[73.61011,34.57562],[73.6079,34.58075],[73.60784,34.58089],[73.60783,34.58089],[73.60652,34.58303],[73.60536,34.58492],[73.60535,34.58492],[73.6004,34.5873],[73.59316,34.58833],[73.59124,34.58834],[73.58324,34.58838]],[[73.58324,34.58838],[73.57456,34.58719],[73.56577,34.58492],[73.55283,34.5795],[73.53404,34.57164],[73.53307,34.57153],[73.52888,34.57107]],[[73.52888,34.57107],[73.52693,34.57112],[73.52474,34.57117],[73.50386,34.57458],[73.4989,34.575]],[[73.4989,34.575],[73.49753,34.57498],[73.49415,34.57494],[73.46407,34.57055],[73.46357,34.57033],[73.45446,34.56637],[73.45012,34.56259],[73.44712,34.55805],[73.44619,34.55381],[73.44568,34.54916],[73.44557,34.54037],[73.44495,34.53686],[73.4432,34.53345],[73.43813,34.52596],[73.43669,34.52216],[73.43606,34.51733],[73.43782,34.49113],[73.43751,34.48772],[73.43658,34.48464],[73.43534,34.4818],[73.42904,34.47294],[73.42775,34.47053],[73.42749,34.47004],[73.42748,34.47003],[73.42676,34.46601],[73.42687,34.43573],[73.42594,34.43038],[73.42592,34.43033],[73.42537,34.42833],[73.42025,34.40963],[73.41508,34.39764],[73.40383,34.38092],[73.4002,34.37553],[73.40022,34.37548],[73.40713,34.35504],[73.44723,34.30597],[73.4555,34.29217],[73.45953,34.2824],[73.4741,34.26918],[73.47414,34.26901],[73.49043,34.19835],[73.49136,34.18127],[73.48957,34.14964],[73.48939,34.14652],[73.48979,34.14006],[73.49043,34.12949],[73.49081,34.1282],[73.50852,34.06839],[73.51844,34.00942],[73.51856,34.00847],[73.51858,34.00832]]]}},{"type":"Feature","properties":{"name":"Indian claim","note":"(Admin. by Pakistan, Claimed by India)","type":""},"geometry":{"type":"MultiLineString","coordinates":[[[73.51858,34.00832],[73.51864,34.00777],[73.57983,33.91046],[73.58252,33.87674],[73.56722,33.80344],[73.57642,33.77714],[73.58851,33.76233],[73.59575,33.74562],[73.59936,33.72748],[73.60029,33.70859],[73.59564,33.69539],[73.57745,33.66324],[73.57642,33.65402],[73.57838,33.64756],[73.57311,33.63366],[73.57642,33.62637],[73.60381,33.60593],[73.61466,33.59312],[73.6252,33.57547],[73.63285,33.55684],[73.63502,33.5408],[73.63099,33.53118],[73.62448,33.52821],[73.61817,33.52617],[73.61466,33.51966],[73.61497,33.51013],[73.62262,33.47716],[73.62592,33.46966],[73.6282,33.46171],[73.62758,33.45207],[73.62241,33.44861],[73.62058,33.44825],[73.61321,33.4468],[73.61273,33.44652],[73.60422,33.44158],[73.5944,33.41173],[73.58283,33.39987],[73.57383,33.38739],[73.57642,33.36954],[73.58686,33.35556],[73.59843,33.34288],[73.60319,33.33303],[73.60029,33.32182],[73.59761,33.31502],[73.59347,33.3043],[73.59492,33.28572],[73.59916,33.26642],[73.60029,33.24671],[73.59688,33.24425],[73.58996,33.24125],[73.58832,33.24075],[73.58303,33.23911]],[[73.58303,33.23911],[73.57983,33.23926]],[[73.57983,33.23926],[73.57994,33.23843],[73.58117,33.22916],[73.58376,33.22764]],[[73.60949,33.23255],[73.61466,33.23244],[73.61538,33.22957],[73.616,33.22358],[73.61766,33.21689],[73.62076,33.212],[73.64081,33.20105],[73.64928,33.19485],[73.65486,33.18469],[73.65455,33.17304],[73.6498,33.16185],[73.64442,33.15439],[73.64535,33.14309],[73.62251,33.12449],[73.6405,33.1033],[73.67274,33.08491],[73.73196,33.06266],[73.76349,33.04566],[73.7732,33.03065],[73.78602,33.02465],[73.80586,33.01514],[73.8224,33.01321]],[[73.59471,33.22821],[73.59995,33.23036],[73.60143,33.23097],[73.60949,33.23255]],[[73.58779,33.22846],[73.59443,33.22822],[73.59471,33.22821]],[[73.58376,33.22764],[73.58779,33.22846]],[[73.90735,33.02995],[73.92606,33.02597],[73.94301,33.01819],[73.95107,33.01145],[73.95624,33.00618],[73.95944,33.00181],[73.96006,33.00052],[73.97701,32.97587],[73.98301,32.96907],[74.31699,32.82307]],[[73.8224,33.01321],[73.82913,33.01539],[73.82974,33.01558],[73.84763,33.02371],[73.84948,33.02455],[73.8595,33.02698],[73.87376,33.02873],[73.90735,33.02995]]]}},{"type":"Feature","properties":{"name":"Chinese claim","note":"(Admin. by India, Claimed by China)","type":""},"geometry":{"type":"LineString","coordinates":[[79.12504,33.2902],[79.14021,33.16025],[79.13959,33.12493],[79.11582,33.09005],[79.09505,33.05512],[79.10931,33.00791],[79.17608,32.99347],[79.17597,32.98478],[79.21197,32.91994],[79.20119,32.83821],[79.20558,32.80903],[79.23034,32.751],[79.24016,32.70157],[79.22889,32.65612],[79.21948,32.62186],[79.21432,32.58116],[79.21525,32.50791]]}},{"type":"Feature","properties":{"name":"Indian claim","note":"(Admin. by Pakistan, Claimed by India)","type":""},"geometry":{"type":"MultiLineString","coordinates":[[[74.46377,35.12365],[74.48888,35.12009],[74.52071,35.10601],[74.54893,35.08017],[74.57363,35.04617],[74.6127,34.97232],[74.63383,34.94049],[74.66112,34.91811],[74.7991,34.85191],[74.86596,34.8285],[74.92743,34.81345],[74.92756,34.81341],[74.97459,34.81295]],[[74.26915,35.08678],[74.35065,35.0935],[74.41116,35.11179],[74.46311,35.12351],[74.46377,35.12365]],[[74.1247,35.0992],[74.1378,35.09897],[74.17492,35.09832],[74.17686,35.09828],[74.26808,35.08692],[74.26915,35.08678]],[[75.14109,34.87034],[75.1614,34.86196],[75.20796,34.8215],[75.23189,34.79458],[75.24894,34.76231],[75.25529,34.72877],[75.25173,34.69686],[75.25162,34.69665],[75.22661,34.64903],[75.22656,34.64875],[75.22475,34.63958],[75.22456,34.63861]],[[74.97459,34.81295],[75.00482,34.81698],[75.02813,34.82406],[75.06723,34.83052],[75.06724,34.83052],[75.08693,34.83925],[75.12248,34.86664],[75.12249,34.86664],[75.13978,34.87008],[75.14109,34.87034]]]}},{"type":"Feature","properties":{"name":"Indian claim","note":"(Admin. by Pakistan, Claimed by India)","type":""},"geometry":{"type":"LineString","coordinates":[[73.71184,36.89414],[73.71171,36.8932],[73.70892,36.87382],[73.71156,36.86179],[73.71166,36.86134],[73.71171,36.86111],[73.7145,36.85646],[73.72029,36.85114],[73.72302,36.84941],[73.72504,36.84814],[73.73021,36.84576],[73.73775,36.84344],[73.77475,36.83811],[73.7855,36.83445],[73.79777,36.82855],[73.79894,36.82799],[73.81219,36.81639],[73.81299,36.81569],[73.86808,36.7855],[73.86901,36.78499],[73.881,36.77646],[73.88698,36.77083],[73.88724,36.77059],[73.8873,36.77052],[73.88898,36.76438],[73.89112,36.75652],[73.89123,36.7561],[73.89206,36.7515],[73.89144,36.74675],[73.8873,36.73797],[73.88637,36.73404],[73.88658,36.73016],[73.88782,36.72556],[73.88813,36.71993],[73.88575,36.71419],[73.87935,36.71161],[73.87397,36.71104],[73.85423,36.71476],[73.83335,36.72143],[73.80193,36.72846],[73.79088,36.72918],[73.78715,36.72841],[73.76741,36.7176],[73.76163,36.71605],[73.75625,36.71642],[73.7363,36.72437],[73.72855,36.72654],[73.72122,36.72711],[73.71512,36.72499],[73.69538,36.71037],[73.68411,36.70489],[73.67863,36.70396],[73.67336,36.70453],[73.66199,36.70913],[73.65486,36.71058],[73.6283,36.70975],[73.62231,36.71016],[73.61786,36.71218],[73.61712,36.71276],[73.61352,36.71559],[73.60763,36.72169],[73.59916,36.73264],[73.59512,36.73548],[73.59481,36.73546],[73.59068,36.73512],[73.57673,36.72923],[73.57104,36.72773],[73.56536,36.72794],[73.5575,36.73125],[73.55316,36.73233],[73.54138,36.7328],[73.51988,36.73073],[73.51399,36.73135],[73.45384,36.74722],[73.42966,36.75109],[73.41601,36.75207],[73.31411,36.72112],[73.29633,36.71745],[73.28755,36.71724],[73.2708,36.71848],[73.24311,36.71652],[73.21789,36.71239],[73.21344,36.7129],[73.20848,36.71523],[73.20791,36.71569],[73.19236,36.72825],[73.18213,36.73388],[73.18208,36.73389],[73.17655,36.73486],[73.17158,36.733],[73.14203,36.71399],[73.13055,36.70939],[73.09727,36.70283],[73.07815,36.70081],[73.0734,36.69854],[73.07133,36.69497],[73.07154,36.69109],[73.07268,36.68588],[73.0734,36.6636],[73.07753,36.65115],[73.09304,36.61771],[73.09552,36.6095],[73.09552,36.6066],[73.09448,36.6033],[73.08539,36.59007],[73.07216,36.57363],[73.06937,36.56867],[73.06616,36.55612],[73.06306,36.54898],[73.055,36.53963],[73.04891,36.53514],[73.04219,36.53116],[72.98917,36.51446],[72.98297,36.51126],[72.97987,36.5078],[72.97987,36.50428],[72.98183,36.50015],[72.98493,36.4956],[72.98855,36.48909],[72.98958,36.48377],[72.98834,36.47617],[72.98493,36.47276],[72.9808,36.47085],[72.95599,36.46811],[72.92602,36.46837],[72.90648,36.46563],[72.89574,36.46155],[72.88995,36.4571],[72.8885,36.4525],[72.88592,36.43891],[72.88612,36.41395],[72.88736,36.40233],[72.88654,36.39706],[72.88364,36.39199],[72.87693,36.38429],[72.86928,36.37969],[72.83838,36.37396],[72.83021,36.37039],[72.82163,36.3646],[72.78453,36.32879],[72.77378,36.32269],[72.76727,36.32001],[72.7527,36.31654],[72.73771,36.31096],[72.7188,36.30011],[72.71394,36.29618],[72.69244,36.27107],[72.68696,36.26916],[72.68087,36.26931],[72.65451,36.2781],[72.64294,36.27898],[72.63343,36.27856],[72.62185,36.27665],[72.60748,36.27272],[72.59426,36.26425],[72.58599,36.25784],[72.57803,36.24988],[72.57203,36.2427],[72.568,36.23676],[72.5649,36.23014],[72.55384,36.18911],[72.55136,36.17356],[72.55136,36.17004],[72.55312,36.16653],[72.56056,36.15573],[72.56211,36.14999],[72.56025,36.14389],[72.53441,36.1165],[72.53173,36.11232],[72.53028,36.10808],[72.52925,36.1026],[72.52914,36.09754],[72.53121,36.09108],[72.53524,36.08307],[72.53627,36.07966],[72.53803,36.0764],[72.54124,36.07253],[72.57266,36.05005],[72.57917,36.04276],[72.58072,36.0348],[72.58836,36.01868],[72.58909,36.01615],[72.58816,36.01279],[72.51561,35.90396],[72.5156,35.90396],[72.55675,35.88934],[72.65389,35.85484],[72.65585,35.85414],[72.75001,35.84484],[72.79238,35.83756],[72.79848,35.83771],[72.80613,35.83869],[72.80892,35.84133],[72.8146,35.8481],[72.81801,35.8512],[72.85615,35.87021],[72.86463,35.8728],[72.87217,35.8743],[72.9716,35.87812],[72.9778,35.87719],[72.98251,35.87583],[72.98565,35.87492],[73.00038,35.86878],[73.00054,35.86872],[73.00717,35.86511],[73.0088,35.86422],[73.01574,35.86141],[73.01645,35.86112],[73.03165,35.85683],[73.04219,35.85606],[73.05273,35.85652],[73.05955,35.85776],[73.0643,35.85952],[73.06813,35.86164],[73.07247,35.86489],[73.08063,35.87342],[73.08529,35.87652],[73.08636,35.8763],[73.08797,35.87598],[73.08816,35.87594],[73.08839,35.8759],[73.09056,35.87414],[73.09221,35.87114],[73.09428,35.86835],[73.10833,35.85616],[73.1191,35.84862],[73.11953,35.84832],[73.1197,35.8482],[73.12936,35.84294],[73.14882,35.83233],[73.14957,35.83192],[73.15298,35.8281],[73.15474,35.82489],[73.15412,35.82133],[73.15133,35.81745],[73.13262,35.80242],[73.12993,35.79942],[73.12849,35.79632],[73.12311,35.74449],[73.12311,35.73689],[73.12384,35.73033],[73.12559,35.7248],[73.12921,35.72025],[73.13531,35.71498],[73.22781,35.66366],[73.24031,35.65431],[73.24373,35.65095],[73.25158,35.64506],[73.28227,35.62751],[73.28996,35.62311],[73.29044,35.62284],[73.29685,35.6171],[73.29923,35.61323],[73.30398,35.60238],[73.30674,35.60054],[73.30684,35.60047],[73.30708,35.60031],[73.30987,35.5993],[73.3108,35.59897],[73.32506,35.59586],[73.3292,35.59545],[73.34894,35.59716],[73.35473,35.59685],[73.36568,35.59502],[73.3662,35.59493],[73.37385,35.5924],[73.37431,35.59218],[73.38218,35.58839],[73.38253,35.58822],[73.38832,35.58398],[73.39235,35.58015],[73.39493,35.57483],[73.39669,35.56982],[73.40894,35.54906],[73.40942,35.54825],[73.40948,35.54815],[73.40971,35.54775],[73.44258,35.56176],[73.46393,35.5579],[73.46546,35.55762],[73.46565,35.55759],[73.46573,35.55757],[73.50355,35.53461],[73.50427,35.53417],[73.50437,35.53411],[73.50479,35.53385],[73.56608,35.54181],[73.62954,35.543],[73.7578,35.52711],[73.75842,35.52703],[73.77164,35.52213],[73.77185,35.52205],[73.77207,35.52197],[73.77785,35.50569],[73.77847,35.50233],[73.78168,35.46089],[73.78261,35.45685],[73.78405,35.45293],[73.78467,35.44988],[73.78416,35.44714],[73.78147,35.44466],[73.77692,35.44244],[73.76752,35.43934],[73.74251,35.42776],[73.72752,35.41763],[73.72587,35.41515],[73.72442,35.41246],[73.72287,35.40849],[73.71718,35.398],[73.69424,35.36637],[73.69155,35.3611],[73.69021,35.35743],[73.6899,35.35454],[73.69062,35.34854],[73.69083,35.34518],[73.68732,35.31769],[73.68711,35.31361],[73.68742,35.31015],[73.68887,35.30673],[73.71842,35.2641],[73.71998,35.25888],[73.72029,35.25465],[73.7176,35.2393],[73.71512,35.23403],[73.71481,35.23015],[73.71553,35.22514],[73.72215,35.21573],[73.72783,35.21155],[73.73151,35.20975],[73.73211,35.20946],[73.73219,35.20942],[73.73227,35.20938],[73.73568,35.20927],[73.73868,35.20979],[73.74189,35.21124],[73.74581,35.21377],[73.76659,35.23124],[73.76989,35.2332],[73.7731,35.23449],[73.7763,35.23506],[73.80121,35.2349],[73.80844,35.23371],[73.80962,35.23352],[73.80969,35.23351],[73.81299,35.23253],[73.82105,35.23015],[73.83935,35.22183],[73.85888,35.20462],[73.86337,35.20271],[73.86423,35.20235],[73.86435,35.2023],[73.86436,35.2023],[73.86994,35.20256],[73.88782,35.20808],[73.89766,35.20693],[73.89836,35.20684],[73.91007,35.20325],[73.91499,35.20174],[73.9243,35.19889],[73.94921,35.17258],[73.95407,35.17072],[73.9581,35.16978],[73.95848,35.16969],[73.95879,35.16962],[73.96068,35.16917],[73.96844,35.17248],[73.9767,35.17434],[73.99227,35.17527],[73.99231,35.17527],[73.99466,35.17476],[73.99482,35.17472],[73.99872,35.17387],[74.00265,35.17129],[74.00399,35.16824],[74.00636,35.16515],[74.00637,35.16514],[74.00853,35.16338],[74.02549,35.14964],[74.03148,35.1468],[74.03619,35.14536],[74.03704,35.1451],[74.03706,35.14509],[74.05161,35.1439],[74.07914,35.14164],[74.07933,35.14163],[74.09727,35.14192],[74.09799,35.14194],[74.09814,35.14194],[74.10037,35.14107],[74.10186,35.14049],[74.10219,35.14],[74.10352,35.13801],[74.103,35.13491],[74.10166,35.13062],[74.10238,35.12649],[74.10517,35.12137],[74.11933,35.11124],[74.12305,35.10747],[74.12439,35.10509],[74.1244,35.10509],[74.1244,35.10497],[74.12469,35.09948],[74.12469,35.09945],[74.1247,35.09937],[74.1247,35.09921],[74.1247,35.0992],[74.1247,35.0992],[74.12471,35.0992],[74.1247,35.0992]]}}]}
